ONEWEB-0452             
1 51644C 22012Y   22340.42619627 -.00001808  00000-0 -46640-2 0  3406
2 51644  87.9110 261.9140 0001506 113.9805 305.4235 13.17633680    11
ONEWEB-0456             
1 51646C 22012AA  22340.30088377  .00002233  00000-0  64064-2 0  3408
2 51646  87.8766 292.4440 0002210  81.5525  38.5545 13.10365977    15
ONEWEB-0457             
1 51647C 22012AB  22340.28035137  .00003966  00000-0  11374-1 0  3401
2 51647  87.8862 292.4016 0001308  62.3831  63.8035 13.10370518    18
ONEWEB-0458             
1 51648C 22012AC  22340.29946016  .00002369  00000-0  67945-2 0  3402
2 51648  87.8715 292.4202 0001972  95.7318  25.1031 13.10364566    13
ONEWEB-0461             
1 51649C 22012AD  22340.27446016  .00001834  00000-0  38683-2 0  3409
2 51649  87.9612 261.8096 0002899  80.4608 345.0287 13.31118850    17
ONEWEB-0463             
1 51650C 22012AE  22340.42934442 -.00002052  00000-0 -52856-2 0  3406
2 51650  87.9099 261.9419 0001040 181.7595 236.8912 13.17719848    15
ONEWEB-0464             
1 51651C 22012AF  22340.14428656 -.00000297  00000-0 -85188-3 0  3405
2 51651  87.8753 292.4486 0002301  94.6190  29.2764 13.10366474    14
ONEWEB-0468             
1 51652C 22012AG  22340.30294396  .00002097  00000-0  60154-2 0  3409
2 51652  87.8761 292.4353 0001810  83.9889  38.5915 13.10366798    17
ONEWEB-0473             
1 51653C 22012AH  22340.13628887  .00001728  00000-0  49555-2 0  3409
2 51653  87.8713 292.4575 0002018  95.5943  27.2498 13.10363998    12
ONEWEB-0474             
1 51654C 22012AJ  22340.12898563  .00000179  00000-0  51272-3 0  3408
2 51654  87.8752 292.4483 0002268  93.4450  31.7052 13.10369612    16
ONEWEB-0475             
1 51655C 22012AK  22340.23002729 -.01339460  00000-0 -30894+1 0  3407
2 51655  87.9411 261.9586 0002366 102.1604 348.0230 13.26521495    11
ONEWEB-0490             
1 54113C 22138A   22340.29080276 -.01473226  00000-0 -53143-0 0  3408
2 54113  87.5401 202.9018 0014492 126.5070 194.5587 14.35208428    11
ONEWEB-0492             
1 54114C 22138B   22340.38941387 -.01323817  00000-0 -46766-0 0  3401
2 54114  87.5458 202.8755 0014860 132.4531  21.6707 14.36104027    13
ONEWEB-0495             
1 54115C 22138C   22340.38868470 -.01489879  00000-0 -59749-0 0  3409
2 54115  87.5003 202.8771 0015091 148.8505 189.7264 14.29841413    10
ONEWEB-0497             
1 54116C 22138D   22340.37757359 -.01488756  00000-0 -57162-0 0  3402
2 54116  87.5156 202.8754 0016092 134.7330  16.8114 14.32052870    12
ONEWEB-0499             
1 54117C 22138E   22340.39009674 -.01473529  00000-0 -54656-0 0  3402
2 54117  87.5312 202.8780 0015469 129.7357 230.5020 14.33795106    14
ONEWEB-0500             
1 54118C 22138F   22340.40187913 -.01505033  00000-0 -53149-0 0  3400
2 54118  87.5572 202.8634 0012412 123.4816 224.9031 14.36324880    16
ONEWEB-0501             
1 54119C 22138G   22340.36093007 -.01431721  00000-0 -55013-0 0  3400
2 54119  87.5182 202.8784 0016900 139.4867 220.4798 14.31949223    19
ONEWEB-0502             
1 54120C 22138H   22340.21057127 -.01466023  00000-0 -52054-0 0  3404
2 54120  87.5447 202.9190 0013326 123.5506 217.6612 14.36005317    15
ONEWEB-0503             
1 54121C 22138J   22340.39216851 -.01382680  00000-0 -51705-0 0  3403
2 54121  87.5286 202.8693 0016147 130.0898 229.6960 14.33284647    16
ONEWEB-0504             
1 54122C 22138K   22340.40574490 -.01482687  00000-0 -52607-0 0  3402
2 54122  87.5452 202.8665 0013069 125.0551 194.5357 14.36060860    13
ONEWEB-0505             
1 54123C 22138L   22340.37480738 -.01457244  00000-0 -56631-0 0  3402
2 54123  87.5168 202.8768 0015784 146.7473 206.1657 14.31409381    14
ONEWEB-0506             
1 54124C 22138M   22340.30816387 -.01408106  00000-0 -53822-0 0  3401
2 54124  87.5246 202.9104 0017234 147.9002 277.0520 14.32189659    10
ONEWEB-0507             
1 54125C 22138N   22340.37722637 -.01455095  00000-0 -49733-0 0  3408
2 54125  87.5614 202.8655 0012425 127.5333 206.3686 14.37908743    14
ONEWEB-0508             
1 54126C 22138P   22340.42897405 -.01448505  00000-0 -52188-0 0  3407
2 54126  87.5459 202.8651 0014481 128.4205 210.6465 14.35244423    19
ONEWEB-0509             
1 54127C 22138Q   22340.36963377 -.01471450  00000-0 -56932-0 0  3409
2 54127  87.5160 202.8717 0016391 137.4102 287.9231 14.31642803    18
ONEWEB-0510             
1 54128C 22138R   22340.34738840  .00000705  00000-0  12110-3 0  3404
2 54128  86.9026 201.4096 0011854 136.5041 159.8647 14.68771553    12
ONEWEB-0511             
1 54129C 22138S   22340.27932129 -.01444256  00000-0 -50949-0 0  3408
2 54129  87.5484 202.8936 0013302 123.5672 218.8645 14.36308792    12
ONEWEB-0512             
1 54130C 22138T   22340.36649720 -.01483162  00000-0 -57246-0 0  3408
2 54130  87.5179 202.8710 0016196 136.9366 287.9758 14.31779774    16
ONEWEB-0513             
1 54131C 22138U   22340.37206434 -.01491567  00000-0 -12326+1 0  3409
2 54131  87.6022 203.6798 0013085 136.5787 182.5506 13.90529532    17
ONEWEB-0514             
1 54132C 22138V   22340.28174027 -.01469669  00000-0 -52386-0 0  3400
2 54132  87.5444 202.8892 0013623 127.9327 237.3247 14.35811529    14
ONEWEB-0515             
1 54133C 22138W   22340.37831433  .00001651  00000-0  28342-3 0  3400
2 54133  86.9052 201.3566 0012745 130.0664 295.1620 14.68782840    14
ONEWEB-0516             
1 54134C 22138X   22340.35501572 -.01480622  00000-0 -52991-0 0  3403
2 54134  87.5465 202.8808 0013081 124.9172 219.0883 14.35623239    11
ONEWEB-0517             
1 54135C 22138Y   22340.39011988 -.01453551  00000-0 -53043-0 0  3405
2 54135  87.5381 202.8665 0015346 130.4605 293.3859 14.34598597    14
ONEWEB-0518             
1 54136C 22138Z   22340.40329119 -.01342234  00000-0 -50205-0 0  3408
2 54136  87.5245 202.8748 0017017 131.6016 215.0498 14.33223761    19
ONEWEB-0519             
1 54137C 22138AA  22340.28383516 -.01471845  00000-0 -50778-0 0  3402
2 54137  87.5536 202.9019 0013626 125.2259  20.6271 14.37449712    14
ONEWEB-0520             
1 54138C 22138AB  22340.23211064 -.01446723  00000-0 -52361-0 0  3403
2 54138  87.5407 202.9254 0015514 128.2148 215.5311 14.35005425    18
ONEWEB-0521             
1 54139C 22138AC  22340.38209905 -.01426220  00000-0 -55534-0 0  3406
2 54139  87.5081 202.8715 0016309 148.6793 189.5491 14.31272863    10
ONEWEB-0522             
1 54140C 22138AD  22340.36926340 -.01439238  00000-0 -54960-0 0  3400
2 54140  87.5254 202.8909 0017359 139.9685 282.6574 14.32267570    15
ONEWEB-0523             
1 54141C 22138AE  22340.37275877  .00001787  00000-0  30392-3 0  3401
2 54141  86.9048 201.3629 0011894 136.1517 289.7473 14.69204803    10
ONEWEB-0524             
1 54142C 22138AF  22340.37309442  .00001730  00000-0  29680-3 0  3404
2 54142  86.9049 201.3604 0011578 137.2601 286.9728 14.68837203    17
ONEWEB-0525             
1 54143C 22138AG  22340.38937914 -.01453620  00000-0 -53560-0 0  3400
2 54143  87.5300 202.8708 0014185 124.6742 239.5802 14.34121144    19
ONEWEB-0526             
1 54144C 22138AH  22340.36406664 -.01474843  00000-0 -56876-0 0  3405
2 54144  87.5156 202.8722 0016952 140.2709 227.6857 14.31807906    18
ONEWEB-0529             
1 54145C 22138AJ  22340.32829118 -.01461305  00000-0 -54015-0 0  3407
2 54145  87.5336 202.8915 0015930 137.4859 205.3621 14.33953153    12
ONEWEB-0531             
1 54146C 22138AK  22340.30852266 -.00000674  00000-0 -11556-3 0  3409
2 54146  86.9039 201.3904 0012045 135.8437 289.5700 14.68822892    11
ONEWEB-0535             
1 54147C 22138AL  22340.26370786 -.01480915  00000-0 -50380-0 0  3403
2 54147  87.5543 202.9053 0012666 123.9399 300.3098 14.38165244    15
ONEWEB-0536             
1 54148C 22138AM  22340.37896248  .00001623  00000-0  27686-3 0  3400
2 54148  86.9028 201.3993 0011906 130.5300 293.0948 14.69070878    19
